CCSDS_OEM_VERS = 2.0
CREATION_DATE  = 2025-08-27T15:04:55.652
ORIGINATOR     = NASA/JSC/FOD/TOPO

META_START
OBJECT_NAME          = ISS
OBJECT_ID            = 1998-067-A
CENTER_NAME          = Earth
REF_FRAME            = EME2000
TIME_SYSTEM          = UTC
START_TIME           = 2025-08-27T12:00:00.000
USEABLE_START_TIME   = 2025-08-27T12:00:00.000
USEABLE_STOP_TIME    = 2025-09-11T12:00:00.000
STOP_TIME            = 2025-09-11T12:00:00.000
META_STOP

COMMENT Source: This file was produced by the TOPO office within FOD at JSC.
COMMENT Units are in kg and m^2
COMMENT MASS=469659.00
COMMENT DRAG_AREA=1514.10
COMMENT DRAG_COEFF=1.80
COMMENT SOLAR_RAD_AREA=0.00
COMMENT SOLAR_RAD_COEFF=0.00
COMMENT Orbits start at the ascending node epoch
COMMENT ISS first asc. node: EPOCH = 2025-08-27T13:26:17.191 $ ORBIT = 623 $ LAN(DEG) = 135.71344
COMMENT ISS last asc. node : EPOCH = 2025-09-11T10:49:25.947 $ ORBIT = 854 $ LAN(DEG) = 86.44081
COMMENT Begin sequence of events
COMMENT TRAJECTORY EVENT SUMMARY:
COMMENT 
COMMENT |       EVENT        |       TIG        | ORB |   DV    |   HA    |   HP    |
COMMENT |                    |       GMT        |     |   M/S   |   KM    |   KM    |
COMMENT |                    |                  |     |  (F/S)  |  (NM)   |  (NM)   |
COMMENT =============================================================================
COMMENT  GMT 246 SpX-33 Reboo  246:18:15:00.000             0.5     419.8     410.7
COMMENT                                                    (1.6)   (226.7)   (221.8)
COMMENT 
COMMENT  91P_Undock            252:15:45:30.000             0.0     420.3     411.2
COMMENT                                                    (0.0)   (226.9)   (222.0)
COMMENT 
COMMENT =============================================================================
COMMENT End sequence of events
2025-09-04T13:00:04.573 -3608.031787201460 -3233.249844593670 -4766.048248723740 2.51922730628909 -6.72378762642180 2.65629192301489
2025-09-04T13:04:04.574 -2879.817383031460 -4710.054770700340 -3962.845500327680 3.51244893306091 -5.50767041897905 3.99643367203406
2025-09-04T13:08:04.573 -1942.426510113580 -5844.696778306290 -2870.981911352080 4.25164085201056 -3.88961971830223 5.04698456496899
2025-09-04T13:12:04.574 -863.771187298084 -6554.205525200510 -1569.729510609650 4.68232039720303 -1.98647331137441 5.73047326048288
2025-09-04T13:16:04.573 277.768997747535 -6786.456016483170 -153.874980721488 4.77236386501122 0.06313900154967 5.99599466860535
2025-09-04T13:20:04.574 1399.075498702160 -6524.187213103890 1273.212546608630 4.51467752259008 2.10913160429086 5.82342273234641
2025-09-04T13:24:04.573 2418.427992258330 -5786.413943122000 2607.236418214220 3.92798993048175 4.00125825662750 5.22527263481023
2025-09-04T13:28:04.574 3261.591539139340 -4627.036814607250 3750.759355007680 3.05551098841757 5.60096232448925 4.24576417749955
2025-09-04T13:32:04.573 3867.290036017760 -3130.741399993370 4620.410189961770 1.96127659548983 6.79181887517874 2.95709084240123
2025-09-04T13:36:04.574 4191.629282520140 -1406.651961375660 5152.945487992860 0.72518421919706 7.48779403559374 1.45370447169709
2025-09-04T13:40:04.573 4211.202377889170 419.719904287731 5309.754808285500 -0.56299330987680 7.63909218129885 -0.15486094064812
2025-09-04T13:44:04.574 3924.688370540740 2215.586943346540 5079.535695199160 -1.81007087646679 7.23515134387585 -1.75190944195952
2025-09-04T13:48:04.573 3352.899274793810 3850.402841035100 4479.052982110220 -2.92582395216644 6.30511953209568 -3.22157707127676
2025-09-04T13:52:04.574 2537.317337521000 5205.235918842300 3551.967217399240 -3.82927626390725 4.91610606968625 -4.45694374999849
2025-09-04T13:56:04.573 1537.155278473730 6181.390158942950 2365.752859550790 -4.45454450848922 3.16869826011529 -5.36768801156717
2025-09-04T14:00:04.574 425.121614262133 6707.671651288740 1006.875786579970 -4.75578837223205 1.19013606525993 -5.88691055410768
2025-09-04T14:04:04.573 -717.861724182784 6745.720459892770 -425.501333669587 -4.71087847383251 -0.87489244420276 -5.97642215576689
2025-09-04T14:08:04.574 -1808.619541286210 6292.916954594990 -1826.838865653850 -4.32331424665689 -2.87517808448435 -5.62992134559725
2025-09-04T14:12:04.573 -2767.883743747860 5382.539245501290 -3094.982018998500 -3.62190869229451 -4.66470671998015 -4.87341091293760
2025-09-04T14:16:04.574 -3526.111397623750 4081.173327664970 -4137.688532996660 -2.65832219733135 -6.11365178917626 -3.76290740045834
2025-09-04T14:20:04.573 -4028.495255880660 2483.664990975200 -4879.322325892480 -1.50289580796803 -7.11771941819239 -2.37985350178713
2025-09-04T14:24:04.574 -4238.829095562150 706.088657226143 -5266.223765280620 -0.23930923419810 -7.60526598702647 -0.82476000156504
2025-09-04T14:28:04.573 -4141.985553296580 -1122.661401474140 -5270.413526439470 1.04146868961258 -7.54160816937397 0.79011001469979
2025-09-04T14:32:04.574 -3744.929926000930 -2870.032169830460 -4891.516358945350 2.24734542850607 -6.93111658140653 2.34829297878086
2025-09-04T14:36:04.573 -3076.241824198320 -4409.208893498590 -4156.813336464620 3.29131619786931 -5.81698947430351 3.73710203820898
2025-09-04T14:40:04.574 -2184.169538777990 -5628.170284951570 -3119.403842441790 4.09745454814915 -4.27870709102236 4.85534080264485
2025-09-04T14:44:04.573 -1133.289175596990 -6437.858077671300 -1854.544690326320 4.60649402972197 -2.42709971193566 5.62074101256883
2025-09-04T14:48:04.574 0.080833588123 -6778.845674098170 -454.311021327866 4.78052612028131 -0.39681262585053 5.97637076565167
2025-09-04T14:52:04.573 1133.430127693430 -6625.919733254200 979.102161857937 4.60626593135669 1.66349569526858 5.89545509477283
2025-09-04T14:56:04.574 2184.168144897110 -5990.085213178450 2340.954835663470 4.09633585421729 3.60264015177805 5.38370866283234
2025-09-04T15:00:04.573 3075.758636008820 -4917.767529962070 3531.757211461750 3.28823008559205 5.27851950180632 4.47887547900229
2025-09-04T15:04:04.574 3743.373599280440 -3487.314184482710 4464.645328993920 2.24138210546799 6.56890759498011 3.24772333975634
2025-09-04T15:08:04.573 4138.613801711780 -1803.086776075520 5071.742834154010 1.03231337895938 7.38052709571700 1.78061031375403
2025-09-04T15:12:04.574 4232.919452938200 12.271542658914 5308.994760795250 -0.25114135570145 7.65511307506266 0.18450354666659
2025-09-04T15:16:04.573 4019.552661058240 1826.742088667570 5159.257861739100 -1.51605706686190 7.37322281114740 -1.42465937575794
2025-09-04T15:20:04.574 3514.034188855520 3508.435512160210 4633.468253184220 -2.67095413670485 6.55533129721872 -2.93018786006443
2025-09-04T15:24:04.573 2753.032461654480 4935.042645287520 3769.852327204250 -3.63209086412427 5.26037901429983 -4.22266532121870
2025-09-04T15:28:04.574 1791.784576465870 6002.670083120190 2631.242642928550 -4.32943743736947 3.58204211362707 -5.20770873509982
2025-09-04T15:32:04.573 700.153690778708 6633.466280398230 1300.607697715570 -4.71191877286467 1.64240920723559 -5.81299419040096
2025-09-04T15:36:04.574 -442.433706161505 6781.438199705320 -124.968050293267 -4.75146796598793 -0.41677343689278 -5.99400443767399
2025-09-04T15:40:04.573 -1552.828336244290 6435.918407520760 -1541.435614716320 -4.44534451244284 -2.44475254297974 -5.73762311457119
2025-09-04T15:44:04.574 -2550.305263560410 5622.345502707030 -2845.499706870320 -3.81634578103744 -4.29334052788799 -5.06318522159826
2025-09-04T15:48:04.574 -3362.505769999130 4400.277049802590 -3942.254315434120 -2.91090442794708 -5.82820144374610 -4.02076047887341
2025-09-04T15:52:04.574 -3930.682888684130 2858.841202108480 -4752.097038420920 -1.79524899228921 -6.93870783093445 -2.68692538562470
2025-09-04T15:56:04.574 -4213.855957781560 1110.098044079540 -5216.394735243580 -0.55027419168191 -7.54542292336364 -1.15874961909043
2025-09-04T16:00:04.573 -4191.640162681080 -719.100613410447 -5301.576224951770 0.73429268147347 -7.60517463219570 0.45324844453238
2025-09-04T16:04:04.574 -3865.627185040540 -2496.175965270590 -5001.429414526010 1.96608474136566 -7.11361245998335 2.03288877366957
2025-09-04T16:08:04.573 -3259.270403870370 -4092.204793995620 -4337.537397878820 3.05631550711089 -6.10542971758607 3.46601755033278
2025-09-04T16:12:04.574 -2416.290898957050 -5391.108833045500 -3357.845619522590 3.92586941643775 -4.65242540567357 4.64841902890595
2025-09-04T16:16:04.573 -1397.664140729770 -6298.067558834240 -2133.366508278500 4.51096866191051 -2.85902897325012 5.49325553008906
2025-09-04T16:20:04.574 -277.321165839504 -6746.585384670490 -753.182142542549 4.76818427662741 -0.85546161148591 5.93783671941686
2025-09-04T16:24:04.573 863.209771983396 -6703.581275033700 682.018633452687 4.67808833963103 1.21177822548319 5.94879801359587
2025-09-04T16:28:04.574 1940.814893948440 -6171.991868676310 2067.370719004360 4.24701978617782 3.19098456912835 5.52497150440119
2025-09-04T16:32:04.573 2876.977351412390 -5190.613888543940 3301.643323899030 3.50669032794502 4.93697775126838 4.69762447649800
2025-09-04T16:36:04.574 3603.595460516440 -3831.169823568430 4294.768998472070 2.51159160438992 6.32229226315538 3.52784621594997
2025-09-04T16:40:04.573 4067.955972760930 -2192.890951178570 4974.448726018660 1.33459886960120 7.24654845242267 2.10165025121506
2025-09-04T16:44:04.574 4236.483415940690 -395.120725213788 5291.345744512260 0.06133124211973 7.64341148741601 0.52311946289918
2025-09-04T16:48:04.573 4097.067324825880 1431.386052990450 5222.523875984830 -1.21602081812220 7.48460663939231 -1.09309679854332
2025-09-04T16:52:04.574 3659.873987643490 3153.858446431400 4773.041407651140 -2.40507272392416 6.78171556938952 -2.62972642070542
2025-09-04T16:56:04.573 2956.621541252380 4647.044721295890 3975.587977814750 -3.41967549168527 5.58545919715012 -3.97515091735648
2025-09-04T17:00:04.574 2038.338248802360 5802.243077418200 2888.168961689250 -4.18601927643979 3.98226647743230 -5.03126947531746
